[{"OBJECT_NAME":"STARLINK-3360","OBJECT_ID":"2022-005AX","EPOCH":"2026-03-09T22:08:35.367648","MEAN_MOTION":15.08836848,"ECCENTRICITY":0.00019022,"INCLINATION":53.2181,"RA_OF_ASC_NODE":307.8944,"ARG_OF_PERICENTER":52.2506,"MEAN_ANOMALY":307.8658,"EPHEMERIS_TYPE":0,"CLASSIFICATION_TYPE":"U","NORAD_CAT_ID":51149,"ELEMENT_SET_NO":999,"REV_AT_EPOCH":22863,"BSTAR":-3.7113367e-5,"MEAN_MOTION_DOT":-8.79e-6,"MEAN_MOTION_DDOT":0},{"OBJECT_NAME":"COSMOS 397 DEB","OBJECT_ID":"1971-015J","EPOCH":"2026-03-09T12:26:21.320448","MEAN_MOTION":13.66691871,"ECCENTRICITY":0.06349866,"INCLINATION":65.7052,"RA_OF_ASC_NODE":108.9757,"ARG_OF_PERICENTER":11.0561,"MEAN_ANOMALY":350.3721,"EPHEMERIS_TYPE":0,"CLASSIFICATION_TYPE":"U","NORAD_CAT_ID":5015,"ELEMENT_SET_NO":999,"REV_AT_EPOCH":65116,"BSTAR":0.00097635952,"MEAN_MOTION_DOT":3.3e-5,"MEAN_MOTION_DDOT":0}]
